{
  "type": "FeatureCollection",
  "features": [
    {
      "type": "Feature",
      "properties": {
        "norad_id": 31978,
        "name": "FENGYUN 1C DEB",
        "group": "fengyun-1c-debris",
        "lat": -54.17564719889999,
        "lon": 162.14675209679243,
        "alt_km": 987.8163429886436,
        "timestamp": "2025-12-22T16:55:17.748801+00:00",
        "meta_object_name": "FENGYUN 1C DEB",
        "meta_object_id": "1999-025CPF",
        "meta_epoch": "2025-12-18T09:15:01.115712",
        "meta_mean_motion": 13.63124115,
        "meta_eccentricity": 0.02630419,
        "meta_inclination": 98.3793,
        "meta_ra_of_asc_node": 146.6417,
        "meta_arg_of_pericenter": 35.0311,
        "meta_mean_anomaly": 326.7827,
        "meta_ephemeris_type": 0,
        "meta_classification_type": "U",
        "meta_norad_cat_id": 31978,
        "meta_element_set_no": 999,
        "meta_rev_at_epoch": 91667,
        "meta_bstar": 0.0010168637,
        "meta_mean_motion_dot": 9.73e-06,
        "meta_mean_motion_ddot": 0,
        "tle_line1": "1 31978U 99025CPF 25352.38542958  .00000973  00000+0  10169-2 0  9991",
        "tle_line2": "2 31978  98.3793 146.6417 0263041  35.0311 326.7827 13.63124115916678"
      },
      "geometry": {
        "type": "Point",
        "coordinates": [
          162.14675209679243,
          -54.17564719889999
        ]
      }
    },
    {
      "type": "Feature",
      "properties": {
        "norad_id": 31979,
        "name": "FENGYUN 1C DEB",
        "group": "fengyun-1c-debris",
        "lat": 79.77430027908197,
        "lon": 22.70874355498952,
        "alt_km": 1188.5550974384669,
        "timestamp": "2025-12-22T16:55:17.748812+00:00",
        "meta_object_name": "FENGYUN 1C DEB",
        "meta_object_id": "1999-025CPG",
        "meta_epoch": "2025-12-21T12:25:43.662144",
        "meta_mean_motion": 13.69346228,
        "meta_eccentricity": 0.02679423,
        "meta_inclination": 99.3768,
        "meta_ra_of_asc_node": 87.8961,
        "meta_arg_of_pericenter": 258.229,
        "meta_mean_anomaly": 98.8687,
        "meta_ephemeris_type": 0,
        "meta_classification_type": "U",
        "meta_norad_cat_id": 31979,
        "meta_element_set_no": 999,
        "meta_rev_at_epoch": 58032,
        "meta_bstar": 0.0028002925,
        "meta_mean_motion_dot": 3.085e-05,
        "meta_mean_motion_ddot": 0,
        "tle_line1": "1 31979U 99025CPG 25355.51786646  .00003085  00000+0  28003-2 0  9997",
        "tle_line2": "2 31979  99.3768  87.8961 0267942 258.2290  98.8687 13.69346228580328"
      },
      "geometry": {
        "type": "Point",
        "coordinates": [
          22.70874355498952,
          79.77430027908197
        ]
      }
    },
    {
      "type": "Feature",
      "properties": {
        "norad_id": 31980,
        "name": "FENGYUN 1C DEB",
        "group": "fengyun-1c-debris",
        "lat": -56.50432993946476,
        "lon": -112.21267744692635,
        "alt_km": 1420.2782732379774,
        "timestamp": "2025-12-22T16:55:17.748822+00:00",
        "meta_object_name": "FENGYUN 1C DEB",
        "meta_object_id": "1999-025CPH",
        "meta_epoch": "2025-12-16T11:57:41.696928",
        "meta_mean_motion": 13.32153551,
        "meta_eccentricity": 0.04281038,
        "meta_inclination": 97.6145,
        "meta_ra_of_asc_node": 74.8269,
        "meta_arg_of_pericenter": 103.3204,
        "meta_mean_anomaly": 261.6022,
        "meta_ephemeris_type": 0,
        "meta_classification_type": "U",
        "meta_norad_cat_id": 31980,
        "meta_element_set_no": 999,
        "meta_rev_at_epoch": 89720,
        "meta_bstar": 0.00040322723,
        "meta_mean_motion_dot": 3.01e-06,
        "meta_mean_motion_ddot": 0,
        "tle_line1": "1 31980U 99025CPH 25350.49839927  .00000301  00000+0  40323-3 0  9990",
        "tle_line2": "2 31980  97.6145  74.8269 0428103 103.3204 261.6022 13.32153551897206"
      },
      "geometry": {
        "type": "Point",
        "coordinates": [
          -112.21267744692635,
          -56.50432993946476
        ]
      }
    },
    {
      "type": "Feature",
      "properties": {
        "norad_id": 31984,
        "name": "FENGYUN 1C DEB",
        "group": "fengyun-1c-debris",
        "lat": -60.85965809198557,
        "lon": 165.09134156682202,
        "alt_km": 789.6917119114969,
        "timestamp": "2025-12-22T16:55:17.748832+00:00",
        "meta_object_name": "FENGYUN 1C DEB",
        "meta_object_id": "1999-025CPM",
        "meta_epoch": "2025-12-18T07:09:32.915232",
        "meta_mean_motion": 14.22968839,
        "meta_eccentricity": 0.00628019,
        "meta_inclination": 98.5578,
        "meta_ra_of_asc_node": 356.4784,
        "meta_arg_of_pericenter": 210.9858,
        "meta_mean_anomaly": 148.7609,
        "meta_ephemeris_type": 0,
        "meta_classification_type": "U",
        "meta_norad_cat_id": 31984,
        "meta_element_set_no": 999,
        "meta_rev_at_epoch": 94452,
        "meta_bstar": 0.00030022048,
        "meta_mean_motion_dot": 6.47e-06,
        "meta_mean_motion_ddot": 0,
        "tle_line1": "1 31984U 99025CPM 25352.29829763  .00000647  00000+0  30022-3 0  9999",
        "tle_line2": "2 31984  98.5578 356.4784 0062801 210.9858 148.7609 14.22968839944527"
      },
      "geometry": {
        "type": "Point",
        "coordinates": [
          165.09134156682202,
          -60.85965809198557
        ]
      }
    },
    {
      "type": "Feature",
      "properties": {
        "norad_id": 31985,
        "name": "FENGYUN 1C DEB",
        "group": "fengyun-1c-debris",
        "lat": 16.72514983853733,
        "lon": -105.21690558063584,
        "alt_km": 916.9513530343957,
        "timestamp": "2025-12-22T16:55:17.748842+00:00",
        "meta_object_name": "FENGYUN 1C DEB",
        "meta_object_id": "1999-025CPN",
        "meta_epoch": "2025-12-13T23:34:50.116800",
        "meta_mean_motion": 14.22977716,
        "meta_eccentricity": 0.01504255,
        "meta_inclination": 98.2196,
        "meta_ra_of_asc_node": 249.1254,
        "meta_arg_of_pericenter": 243.0612,
        "meta_mean_anomaly": 115.5134,
        "meta_ephemeris_type": 0,
        "meta_classification_type": "U",
        "meta_norad_cat_id": 31985,
        "meta_element_set_no": 999,
        "meta_rev_at_epoch": 95628,
        "meta_bstar": 0.00043991826,
        "meta_mean_motion_dot": 1.071e-05,
        "meta_mean_motion_ddot": 0,
        "tle_line1": "1 31985U 99025CPN 25347.98252450  .00001071  00000+0  43992-3 0  9995",
        "tle_line2": "2 31985  98.2196 249.1254 0150425 243.0612 115.5134 14.22977716956281"
      },
      "geometry": {
        "type": "Point",
        "coordinates": [
          -105.21690558063584,
          16.72514983853733
        ]
      }
    },
    {
      "type": "Feature",
      "properties": {
        "norad_id": 31987,
        "name": "FENGYUN 1C DEB",
        "group": "fengyun-1c-debris",
        "lat": -46.790557889048465,
        "lon": 141.185029875463,
        "alt_km": 754.876520324925,
        "timestamp": "2025-12-22T16:55:17.748852+00:00",
        "meta_object_name": "FENGYUN 1C DEB",
        "meta_object_id": "1999-025CPQ",
        "meta_epoch": "2025-12-19T21:39:45.434880",
        "meta_mean_motion": 14.4495322,
        "meta_eccentricity": 0.0051852,
        "meta_inclination": 99.0391,
        "meta_ra_of_asc_node": 327.9616,
        "meta_arg_of_pericenter": 136.176,
        "meta_mean_anomaly": 281.0673,
        "meta_ephemeris_type": 0,
        "meta_classification_type": "U",
        "meta_norad_cat_id": 31987,
        "meta_element_set_no": 999,
        "meta_rev_at_epoch": 96473,
        "meta_bstar": 0.0006178,
        "meta_mean_motion_dot": 2.139e-05,
        "meta_mean_motion_ddot": 0,
        "tle_line1": "1 31987U 99025CPQ 25353.90260920  .00002139  00000+0  61780-3 0  9998",
        "tle_line2": "2 31987  99.0391 327.9616 0051852 136.1760 281.0673 14.44953220964730"
      },
      "geometry": {
        "type": "Point",
        "coordinates": [
          141.185029875463,
          -46.790557889048465
        ]
      }
    },
    {
      "type": "Feature",
      "properties": {
        "norad_id": 31989,
        "name": "FENGYUN 1C DEB",
        "group": "fengyun-1c-debris",
        "lat": 55.570714364799144,
        "lon": -108.48557487017997,
        "alt_km": 982.1324098879531,
        "timestamp": "2025-12-22T16:55:17.748862+00:00",
        "meta_object_name": "FENGYUN 1C DEB",
        "meta_object_id": "1999-025CPS",
        "meta_epoch": "2025-12-22T02:40:59.341152",
        "meta_mean_motion": 13.93602197,
        "meta_eccentricity": 0.01151822,
        "meta_inclination": 99.212,
        "meta_ra_of_asc_node": 57.229,
        "meta_arg_of_pericenter": 273.475,
        "meta_mean_anomaly": 115.6803,
        "meta_ephemeris_type": 0,
        "meta_classification_type": "U",
        "meta_norad_cat_id": 31989,
        "meta_element_set_no": 999,
        "meta_rev_at_epoch": 93848,
        "meta_bstar": 0.00062740964,
        "meta_mean_motion_dot": 8.24e-06,
        "meta_mean_motion_ddot": 0,
        "tle_line1": "1 31989U 99025CPS 25356.11179793  .00000824  00000+0  62741-3 0  9990",
        "tle_line2": "2 31989  99.2120  57.2290 0115182 273.4750 115.6803 13.93602197938483"
      },
      "geometry": {
        "type": "Point",
        "coordinates": [
          -108.48557487017997,
          55.570714364799144
        ]
      }
    }
  ]
}